COSMOS 2534 [GLONASS-M] 
1 44299U 19030A   26197.64953360  .00000052  00000+0  00000+0 0  9997
2 44299  64.3705 191.6243 0013502 275.0108 146.6615  2.13102191 55554
BEIDOU-3 IGSO-2         
1 44337U 19035A   26199.90456758 -.00000118  00000+0  00000+0 0  9999
2 44337  55.2516 158.5837 0039250 216.2895   5.7643  1.00256282 25981
NAVSTAR 78 (USA 293)    
1 44506U 19056A   26199.79683123 -.00000104  00000+0  00000+0 0  9990
2 44506  55.6200 329.8860 0063590 198.2191 333.5923  2.00570232 50700
BEIDOU-3 M24            
1 44542U 19061A   26198.84878935  .00000052  00000+0  00000+0 0  9999
2 44542  54.3974 181.6938 0008656 359.7978   0.1726  1.86229139 46368
BEIDOU-3 M23            
1 44543U 19061B   26199.62071561  .00000060  00000+0  00000+0 0  9996
2 44543  54.3960 181.6358 0005988 341.5173  87.3875  1.86227518 46384
EUTELSAT 5 WEST B       
1 44624U 19067A   26199.79072490 -.00000049  00000+0  00000+0 0  9990
2 44624   0.0783 320.3585 0003100 157.4287  98.4504  1.00271159 24758
BEIDOU-3 M22            
1 44793U 19078A   26194.39343167 -.00000062  00000+0  00000+0 0  9997
2 44793  53.9106 298.9058 0005750  50.3045 309.7753  1.86227300 45134
BEIDOU-3 M21            
1 44794U 19078B   26199.36594552 -.00000087  00000+0  00000+0 0  9993
2 44794  53.8786 298.6908 0003558  50.4720 309.5991  1.86227746 45231
COSMOS 2544 [GLONASS-M] 
1 44850U 19088A   26199.46983574 -.00000034  00000+0  00000+0 0  9996
2 44850  65.5825  72.6872 0012069 253.1626 106.7768  2.13102896 51383
BEIDOU-3 M19            
1 44864U 19090A   26199.31615009 -.00000065  00000+0  00000+0 0  9997
2 44864  56.5859  61.7618 0016636 297.6233 226.6293  1.86231447 44812
BEIDOU-3 M20            
1 44865U 19090B   26199.24902023 -.00000064  00000+0  00000+0 0  9994
2 44865  56.5878  61.7982 0014280 312.4225 256.4049  1.86231410 44795
BEIDOU-3 G2             
1 45344U 20017A   26199.74901104 -.00000148  00000+0  00000+0 0  9995
2 45344   2.9271  47.7925 0001801  59.1114 179.3024  1.00272380 23574
COSMOS 2545 [GLONASS-M] 
1 45358U 20018A   26198.72624926 -.00000069  00000+0  00000+0 0  9994
2 45358  64.3350 311.3457 0009663 229.7748 130.1625  2.13102350 49317
BEIDOU-3 G3             
1 45807U 20040A   26199.71551705 -.00000361  00000+0  00000+0 0  9997
2 45807   2.5232  67.4992 0002228 309.4166 287.6963  1.00274773 22387
NAVSTAR 79 (USA 304)    
1 45854U 20041A   26199.88674705 -.00000088  00000+0  00000+0 0  9990
2 45854  56.6910  27.7139 0065386 204.6818 329.0462  2.00557912 44679
GALAXY 30 (G-30)        
1 46114U 20056C   26199.59419865  .00000030  00000+0  00000+0 0  9994
2 46114   0.0188  55.7560 0002222  63.4658 266.0802  1.00272702 21607
COSMOS 2547 [GLONASS-K] 
1 46805U 20075A   26196.56966866  .00000054  00000+0  00000+0 0  9990
2 46805  64.6014 191.5282 0009458 239.8249 120.0839  2.13099910 44518
NAVSTAR 80 (USA 309)    
1 46826U 20078A   26199.75663742  .00000048  00000+0  00000+0 0  9990
2 46826  53.9768 209.4978 0074632 207.9172 209.3199  2.00565020 42149
NAVSTAR 81 (USA 319)    
1 48859U 21054A   26199.41846866 -.00000104  00000+0  00000+0 0  9990
2 48859  55.1577 331.2038 0026523 228.5643 130.8522  2.00567013 37379
QZS-1R (MICHIBIKI-1R)   
1 49336U 21096A   26199.57058939 -.00000316  00000+0  00000+0 0  9995
2 49336  37.5244  79.1164 0755440 272.2947 281.6932  1.00244289 17322
GSAT0223 (GALILEO 27)   
1 49809U 21116A   26197.91381390 -.00000103  00000+0  00000+0 0  9993
2 49809  57.1499 340.8723 0002440 195.3183 168.4273  1.70476073 28695
GSAT0224 (GALILEO 28)   
1 49810U 21116B   26199.49228222 -.00000105  00000+0  00000+0 0  9996
2 49810  57.1493 340.8281 0001876 182.1196 183.0012  1.70476262 28740
COSMOS 2557 [GLONASS-K] 
1 52984U 22075A   26196.73380763 -.00000064  00000+0  00000+0 0  9994
2 52984  64.2802 313.4798 0010855 271.2186  88.6706  2.13102146 31327
COSMOS 2559 [GLONASS-K] 
1 54031U 22130A   26198.89981604 -.00000072  00000+0  00000+0 0  9990
2 54031  64.2511 313.4857 0013130 181.3333 178.6825  2.13101711 29347
COSMOS 2564 [GLONASS-M] 
1 54377U 22161A   26198.74291069  .00000058  00000+0  00000+0 0  9993
2 54377  64.7440 191.6974 0012202 224.8378 135.0614  2.13102013 28284
NAVSTAR 82 (USA 343)    
1 55268U 23009A   26199.64779559  .00000033  00000+0  00000+0 0  9993
2 55268  55.1246 147.2822 0006202 322.6712 241.0430  2.00569402 25874
BEIDOU-3 G4             
1 56564U 23066A   26199.72132375 -.00000287  00000+0  00000+0 0  9996
2 56564   0.4577 339.9779 0005001 184.9198 171.3668  1.00271600 11702
NVS-01 (IRNSS-1J)       
1 56759U 23076A   26199.71924374 -.00000342  00000+0  00000+0 0  9992
2 56759   2.0933 242.9051 0003058  19.5721  62.4094  1.00277063 11435
COSMOS 2569 [GLONASS-K2]
1 57517U 23114A   26199.22448020 -.00000033  00000+0  00000+0 0  9990
2 57517  65.3199  71.5741 0009565 295.7059  64.2679  2.13103790 22922
BEIDOU-3 M28            
1 58654U 23207A   26198.90592297 -.00000063  00000+0  00000+0 0  9999
2 58654  55.7801  61.2668 0002336   7.0710 353.0002  1.86229739 17417
BEIDOU-3 M26            
1 58655U 23207B   26199.24037519 -.00000066  00000+0  00000+0 0  9992
2 58655  55.7828  61.2421 0001836 324.6649  35.3897  1.86229724 17402
